{
  "type": "FeatureCollection",
  "features": [
    {
      "type": "Feature",
      "properties": {
        "norad_id": 32393,
        "name": "COSMOS 2434 (721)",
        "group": "gnss",
        "lat": 60.39132282088402,
        "lon": -40.09550294729422,
        "alt_km": 19112.98865001633,
        "timestamp": "2025-12-24T03:53:29.889956+00:00",
        "meta_object_name": "COSMOS 2434 (721)",
        "meta_object_id": "2007-065A",
        "meta_epoch": "2025-12-22T08:26:32.754336",
        "meta_mean_motion": 2.13101487,
        "meta_eccentricity": 0.00048131,
        "meta_inclination": 64.3157,
        "meta_ra_of_asc_node": 197.8788,
        "meta_arg_of_pericenter": 72.4714,
        "meta_mean_anomaly": 83.8697,
        "meta_ephemeris_type": 0,
        "meta_classification_type": "U",
        "meta_norad_cat_id": 32393,
        "meta_element_set_no": 999,
        "meta_rev_at_epoch": 14000,
        "meta_bstar": 0,
        "meta_mean_motion_dot": 9.5e-07,
        "meta_mean_motion_ddot": 0,
        "tle_line1": "1 32393U 07065A   25356.35176799  .00000095  00000+0  00000+0 0  9998",
        "tle_line2": "2 32393  64.3157 197.8788 0004813  72.4714  83.8697  2.13101487140000"
      },
      "geometry": {
        "type": "Point",
        "coordinates": [
          -40.09550294729422,
          60.39132282088402
        ]
      }
    },
    {
      "type": "Feature",
      "properties": {
        "norad_id": 32395,
        "name": "COSMOS 2436 (723)",
        "group": "gnss",
        "lat": -49.881699771150544,
        "lon": 52.72640524556222,
        "alt_km": 19166.271644270175,
        "timestamp": "2025-12-24T03:53:29.889968+00:00",
        "meta_object_name": "COSMOS 2436 (723)",
        "meta_object_id": "2007-065C",
        "meta_epoch": "2025-12-23T14:51:15.098400",
        "meta_mean_motion": 2.13100222,
        "meta_eccentricity": 0.0017811,
        "meta_inclination": 64.3245,
        "meta_ra_of_asc_node": 197.9064,
        "meta_arg_of_pericenter": 10.214,
        "meta_mean_anomaly": 171.2752,
        "meta_ephemeris_type": 0,
        "meta_classification_type": "U",
        "meta_norad_cat_id": 32395,
        "meta_element_set_no": 999,
        "meta_rev_at_epoch": 13998,
        "meta_bstar": 0,
        "meta_mean_motion_dot": 9.6e-07,
        "meta_mean_motion_ddot": 0,
        "tle_line1": "1 32395U 07065C   25357.61892475  .00000096  00000+0  00000+0 0  9997",
        "tle_line2": "2 32395  64.3245 197.9064 0017811  10.2140 171.2752  2.13100222139988"
      },
      "geometry": {
        "type": "Point",
        "coordinates": [
          52.72640524556222,
          -49.881699771150544
        ]
      }
    },
    {
      "type": "Feature",
      "properties": {
        "norad_id": 32711,
        "name": "GPS BIIRM-6 (PRN 07)",
        "group": "gnss",
        "lat": 12.171391520268466,
        "lon": 165.77080388257184,
        "alt_km": 20519.85631111491,
        "timestamp": "2025-12-24T03:53:29.889979+00:00",
        "meta_object_name": "GPS BIIRM-6 (PRN 07)",
        "meta_object_id": "2008-012A",
        "meta_epoch": "2025-12-23T15:24:58.034304",
        "meta_mean_motion": 2.00566078,
        "meta_eccentricity": 0.020293,
        "meta_inclination": 54.4783,
        "meta_ra_of_asc_node": 156.9377,
        "meta_arg_of_pericenter": 245.0787,
        "meta_mean_anomaly": 112.7846,
        "meta_ephemeris_type": 0,
        "meta_classification_type": "U",
        "meta_norad_cat_id": 32711,
        "meta_element_set_no": 999,
        "meta_rev_at_epoch": 13023,
        "meta_bstar": 0,
        "meta_mean_motion_dot": 8.4e-07,
        "meta_mean_motion_ddot": 0,
        "tle_line1": "1 32711U 08012A   25357.64233836  .00000084  00000+0  00000+0 0  9992",
        "tle_line2": "2 32711  54.4783 156.9377 0202930 245.0787 112.7846  2.00566078130236"
      },
      "geometry": {
        "type": "Point",
        "coordinates": [
          165.77080388257184,
          12.171391520268466
        ]
      }
    },
    {
      "type": "Feature",
      "properties": {
        "norad_id": 35752,
        "name": "GPS BIIRM-8 (PRN 05)",
        "group": "gnss",
        "lat": 26.54101716396938,
        "lon": 53.96605580954241,
        "alt_km": 20088.649183271693,
        "timestamp": "2025-12-24T03:53:29.889991+00:00",
        "meta_object_name": "GPS BIIRM-8 (PRN 05)",
        "meta_object_id": "2009-043A",
        "meta_epoch": "2025-12-22T09:03:38.471040",
        "meta_mean_motion": 2.00565138,
        "meta_eccentricity": 0.00515987,
        "meta_inclination": 56.0976,
        "meta_ra_of_asc_node": 34.4031,
        "meta_arg_of_pericenter": 81.7402,
        "meta_mean_anomaly": 102.7505,
        "meta_ephemeris_type": 0,
        "meta_classification_type": "U",
        "meta_norad_cat_id": 35752,
        "meta_element_set_no": 999,
        "meta_rev_at_epoch": 11981,
        "meta_bstar": 0,
        "meta_mean_motion_dot": -5.3e-07,
        "meta_mean_motion_ddot": 0,
        "tle_line1": "1 35752U 09043A   25356.37752860 -.00000053  00000+0  00000+0 0  9994",
        "tle_line2": "2 35752  56.0976  34.4031 0051598  81.7402 102.7505  2.00565138119812"
      },
      "geometry": {
        "type": "Point",
        "coordinates": [
          53.96605580954241,
          26.54101716396938
        ]
      }
    },
    {
      "type": "Feature",
      "properties": {
        "norad_id": 36111,
        "name": "COSMOS 2456 (730)",
        "group": "gnss",
        "lat": -63.84552284713986,
        "lon": -30.7121390048154,
        "alt_km": 19128.613700076774,
        "timestamp": "2025-12-24T03:53:29.890003+00:00",
        "meta_object_name": "COSMOS 2456 (730)",
        "meta_object_id": "2009-070A",
        "meta_epoch": "2025-12-23T08:10:18.888096",
        "meta_mean_motion": 2.13103774,
        "meta_eccentricity": 0.00036109,
        "meta_inclination": 64.9055,
        "meta_ra_of_asc_node": 76.9756,
        "meta_arg_of_pericenter": 295.3784,
        "meta_mean_anomaly": 56.6202,
        "meta_ephemeris_type": 0,
        "meta_classification_type": "U",
        "meta_norad_cat_id": 36111,
        "meta_element_set_no": 999,
        "meta_rev_at_epoch": 12467,
        "meta_bstar": 0,
        "meta_mean_motion_dot": -1e-08,
        "meta_mean_motion_ddot": 0,
        "tle_line1": "1 36111U 09070A   25357.34049639 -.00000001  00000+0  00000+0 0  9998",
        "tle_line2": "2 36111  64.9055  76.9756 0003610 295.3784  56.6202  2.13103774124670"
      },
      "geometry": {
        "type": "Point",
        "coordinates": [
          -30.7121390048154,
          -63.84552284713986
        ]
      }
    },
    {
      "type": "Feature",
      "properties": {
        "norad_id": 36112,
        "name": "COSMOS 2457 (733)",
        "group": "gnss",
        "lat": 28.067048070203672,
        "lon": 91.26569503660673,
        "alt_km": 19134.412318638697,
        "timestamp": "2025-12-24T03:53:29.890014+00:00",
        "meta_object_name": "COSMOS 2457 (733)",
        "meta_object_id": "2009-070B",
        "meta_epoch": "2025-12-23T15:49:23.328192",
        "meta_mean_motion": 2.13101141,
        "meta_eccentricity": 0.0004506,
        "meta_inclination": 64.8913,
        "meta_ra_of_asc_node": 76.812,
        "meta_arg_of_pericenter": 162.7292,
        "meta_mean_anomaly": 202.8862,
        "meta_ephemeris_type": 0,
        "meta_classification_type": "U",
        "meta_norad_cat_id": 36112,
        "meta_element_set_no": 999,
        "meta_rev_at_epoch": 12469,
        "meta_bstar": 0,
        "meta_mean_motion_dot": -1e-08,
        "meta_mean_motion_ddot": 0,
        "tle_line1": "1 36112U 09070B   25357.65929778 -.00000001  00000+0  00000+0 0  9994",
        "tle_line2": "2 36112  64.8913  76.8120 0004506 162.7292 202.8862  2.13101141124698"
      },
      "geometry": {
        "type": "Point",
        "coordinates": [
          91.26569503660673,
          28.067048070203672
        ]
      }
    },
    {
      "type": "Feature",
      "properties": {
        "norad_id": 36402,
        "name": "COSMOS 2460 (732)",
        "group": "gnss",
        "lat": 28.021405624090782,
        "lon": -25.608360881684902,
        "alt_km": 19128.31193918612,
        "timestamp": "2025-12-24T03:53:29.890026+00:00",
        "meta_object_name": "COSMOS 2460 (732)",
        "meta_object_id": "2010-007C",
        "meta_epoch": "2025-12-22T12:30:28.820160",
        "meta_mean_motion": 2.1310637,
        "meta_eccentricity": 0.00025026,
        "meta_inclination": 65.5243,
        "meta_ra_of_asc_node": 320.4432,
        "meta_arg_of_pericenter": 283.7046,
        "meta_mean_anomaly": 288.4145,
        "meta_ephemeris_type": 0,
        "meta_classification_type": "U",
        "meta_norad_cat_id": 36402,
        "meta_element_set_no": 999,
        "meta_rev_at_epoch": 12296,
        "meta_bstar": 0,
        "meta_mean_motion_dot": -3.9e-07,
        "meta_mean_motion_ddot": 0,
        "tle_line1": "1 36402U 10007C   25356.52116690 -.00000039  00000+0  00000+0 0  9995",
        "tle_line2": "2 36402  65.5243 320.4432 0002502 283.7046 288.4145  2.13106370122964"
      },
      "geometry": {
        "type": "Point",
        "coordinates": [
          -25.608360881684902,
          28.021405624090782
        ]
      }
    }
  ]
}